1 34246U 06006BM  18235.70764155  .00002538  00000-0  22579-2 0  9990
2 34246  51.5505  93.7253 4593948 186.0071 165.7614  6.10771892219650
1 34247U 06006BN  18235.93332941 +.00000486 +00000-0 +96271-3 0  9991
2 34247 052.1483 050.7231 4966436 223.6265 334.5929 05.40812964108415
1 34248U 06006BP  18241.84739381  .00001159  00000-0  52035-3 0  9996
2 34248  51.6251 130.7237 4879459 143.3532 262.9320  5.72425114217402
1 34250U 06006BR  18236.44512063 -.00000094  00000-0 -54088-4 0  9995
2 34250  51.7179  89.3625 5089802 266.5101  36.6504  5.24833791204846
1 34252U 06006BT  18236.46306592 -.00000048  00000-0  18969-4 0  9993
2 34252  51.6557  74.5899 5120582 287.6123  24.3713  5.23004174203439
1 34254U 06006BV  18217.94825344  .00002405  00000-0  19995-2 0  9994
2 34254  51.6159  58.0751 4582125 207.3920 337.1382  6.13772464211633
1 34255U 06006BW  16102.88749763  .00002501  00000-0  39781-2 0  9991
2 34255  52.0959 325.6212 4872235 139.8572 268.9364  5.57912728152516
1 34256U 06006BX  18234.31870323  .00000016  00000-0  75306-4 0  9999
2 34256  51.8824 235.4941 5080012 122.7612 355.9729  5.17454488191495
1 34257U 06006BY  18240.05910368 +.00000717 +00000-0 +19713-2 0  9998
2 34257 052.0874 198.0787 5058463 117.6919 349.2148 05.21435211194823
1 34258U 06006BZ  18222.25320237 +.00000690 +00000-0 +19336-2 0  9992
2 34258 051.8880 171.9356 5056324 171.1273 351.8035 05.22655441104614
1 34260U 06006CB  18239.96907950  .00000740  00000-0  43459-2 0  9993
2 34260  51.8830 122.9391 4885027 198.8588 133.8006  5.35403229206204
1 34261U 06006CC  18240.37268418  .00012609  00000-0  62431-2 0  9998
2 34261  52.1219   2.9709 4521026 154.1156 238.1730  6.30449237212599
1 34262U 06006CD  18222.26108776 -.00000101 +00000-0 -22660-3 0  9994
2 34262 051.8102 187.1638 5029489 171.8173 201.3942 05.21203520078753
1 34263U 06006CE  18239.05421160  .00005743  00000-0  38889-2 0  9999
2 34263  51.5829 172.4391 4796548 120.1808 295.8086  5.81288917209929
1 35248U 07055C   18242.42119274  .00000578  00000-0  10439-3 0  9996
2 35248  97.8721 112.1053 0154445 149.1757 335.9968 14.62608139570968
1 35249U 07055D   18241.50568728  .00000346  00000-0  10112-3 0  9998
2 35249  97.7866 264.8401 0245027 254.1011 103.3050 14.33923189560700
1 35251U 07055F   18241.72380226 +.00000321 +00000-0 +83308-4 0  9991
2 35251 097.8965 327.9457 0205257 073.5534 075.9119 14.43910443564782
1 35268U 04035L   18242.01379840  .00001519  00000-0  77660-4 0  9991
2 35268  97.6781 302.8467 0003953  28.2982  96.1238 15.18238884587451
1 35269U 04035M   18241.88145526 +.00000529 +00000-0 +87858-4 0  9998
2 35269 097.9107 014.3439 0148520 065.9767 295.6902 14.67140085735671
1 35270U 04035N   18241.92122951 +.00000519 +00000-0 +10265-3 0  9998
2 35270 097.7320 276.0027 0178131 269.1463 213.1704 14.56905845733067
1 35271U 05024K   18242.38243149  .00000463  00000-0  27537-4 0  9991
2 35271  97.5152 286.5820 0013707 137.5948 287.1854 15.16025679670487
1 35272U 05024L   18242.34306919  .00000435  00000-0  25682-4 0  9991
2 35272  97.5035 286.0890 0014508 129.4952 289.4825 15.16555619704466
1 35273U 05024M   18241.93334225  .00000535  00000-0  29800-4 0  9994
2 35273  97.5006 287.7746 0015324 116.5311 243.7496 15.17749171745669
1 35274U 08056D   18241.73246104  .00000249  00000-0  15781-3 0  9993
2 35274  99.0486 223.2078 0168673 274.7095  83.4829 14.06209067497478
1 35275U 08056E   18241.41166556 +.00000212 +00000-0 +99986-4 0  9991
2 35275 098.7946 226.9128 0138554 287.5647 071.0436 14.25096463502167
1 35335U 01049PT  12034.85550724 +.00000176 +00000-0 +38114-4 0  9994
2 35335 097.7722 002.3658 0048743 221.5748 116.7175 14.68335919350593
1 35336U 01049PU  15310.22555668  .00001460  00000-0  25698-3 0  9997
2 35336  97.7288 110.5233 0077542 135.1599 233.4363 14.67055962585070
1 35338U 01049PW  14107.23843678 +.00007045 +00000-0 +19110-2 0  9990
2 35338 097.9127 182.5090 0178274 012.9460 349.5390 14.38874493537127
1 35339U 01049PX  18241.31032350 +.00000226 +00000-0 +76743-4 0  9991
2 35339 098.1272 066.8154 0185707 110.6185 251.5028 14.35793247828235
1 35341U 01049PZ  18242.70210915  .00000611  00000-0  82256-4 0  9997
2 35341  97.8716 151.9042 0033735 185.7468 174.3363 14.82405401827977
1 35342U 01049QA  18241.75059085  .00000126  00000-0  81003-4 0  9991
2 35342  98.2378  69.9061 0365162 291.6781  64.5871 13.89537094714028
1 35344U 01049QC  18241.96407162  .00000382  00000-0  79907-4 0  9993
2 35344  98.0103 309.2929 0053469 358.6776   1.4277 14.64428562744597
1 35345U 01049QD  18234.19581711 +.00000518 +00000-0 +11007-3 0  9991
2 35345 098.0757 220.1854 0065184 146.9689 213.5610 14.61843889294439
1 35346U 01049QE  18242.21751291  .00000632  00000-0  18173-3 0  9994
2 35346  98.9103 236.6686 0040594 118.5312 241.9975 14.48033526848927
1 35347U 01049QF  18242.10936290  .00008720  00000-0  29495-3 0  9992
2 35347  98.3810 198.8497 0013176 308.9997  51.0067 15.30838713812742
1 35348U 01049QG  18241.20773332  .00001009  00000-0  18291-3 0  9994
2 35348  98.0091 228.0028 0052755 328.1374  31.6643 14.67580248865643
1 35349U 01049QH  18238.26285158  .00002268  00000-0  10842-3 0  9993
2 35349  97.5447 247.2385 0021461  41.3255 318.9599 15.19859456649632
1 35350U 01049QJ  18242.11870946  .00000217  00000-0  69872-4 0  9999
2 35350  98.4579 205.0904 0075251  40.4579 320.2175 14.47263550792699
1 35351U 01049QK  18241.95918848  .00000483  00000-0  15820-3 0  9993
2 35351  98.7566 145.2535 0003258 307.2145  52.8746 14.43016197794193
1 35374U 06046G   18242.06788010  .00001077  00000-0  43433-4 0  9991
2 35374  97.4366 269.9890 0058032 171.1342 189.0935 15.25556051651168
1 35375U 06046H   18242.27412302  .00000414  00000-0  38426-4 0  9993
2 35375  97.8789 253.8987 0026922 258.0104 163.3580 14.99731726643699
1 35376U 06046J   18241.96276799 +.00000714 +00000-0 +14358-3 0  9997
2 35376 097.7528 299.6432 0197347 175.6105 311.0396 14.52847198623390
1 35378U 06046L   18241.15151945 +.00000480 +00000-0 +89141-4 0  9998
2 35378 097.8481 014.2990 0172037 043.7276 317.7405 14.60482874621100
1 35379U 03049F   18241.21793809  .00000131  00000-0  12581-3 0  9993
2 35379  99.0454 151.3469 0178783  83.0475  72.8839 13.88751189733641
1 35380U 03049G   18240.53324034  .00004246  00000-0  39045-3 0  9994
2 35380  97.9983 347.1424 0037900  86.4165 274.1388 14.94794368657747
1 35381U 03049H   18242.17249050  .00000480  00000-0  93673-4 0  9995
2 35381  98.6626 215.4317 0097830 210.0734 206.9892 14.65175295779785
1 35382U 03049J   18241.56575868 +.00000212 +00000-0 +10991-3 0  9991
2 35382 098.6911 163.0319 0156562 097.6128 264.2860 14.17936646749384
1 35383U 03049K   18241.58994510  .00000023  00000-0  16451-4 0  9991
2 35383  98.4698 141.6797 0049951 262.6874 215.1475 14.56010413775476
1 35397U 07042E   18242.17934926  .00000516  00000-0  10967-3 0  9996
2 35397  98.6237 141.7034 0108675 320.6313  38.7022 14.60262625567294
1 35398U 07042F   18242.14177146  .00001186  00000-0  13077-3 0  9996
2 35398  98.5398 204.1567 0094857 286.6568 129.1605 14.86593105587120
1 35404U 02024J   18242.18895000 -.00000018  00000-0  12626-4 0  9993
2 35404  98.9164 220.3072 0053654  68.0218 348.6633 14.19427120837865
1 35405U 02024K   18241.38503074  .00000154  00000-0  98215-4 0  9990
2 35405  98.9638 221.8014 0125557 293.4672  65.3344 14.13834387835696
1 35413U 06029F   18241.33776010  .00001326  00000-0  53755-4 0  9997
2 35413  64.5088 142.4856 0034150 269.0517  90.6699 15.29378894847433
1 35414U 01055F   18242.41163007  .00001190  00000-0  38167-2 0  9995
2 35414  66.0152 238.4056 0065308 273.4769 236.4091 13.05479660779893
1 35417U 04012L   18241.73643468 +.00001479 +00000-0 +18774-3 0  9995
2 35417 097.7797 123.3775 0106023 109.0411 293.3457 14.79269643688909
1 35418U 06002Z   18241.95641859 +.00000254 +00000-0 +54113-4 0  9991
2 35418 097.8513 226.7631 0001753 083.5158 341.7268 14.66493390615210
1 35420U 01056M   18241.97554192 +.00000086 +00000-0 +13376-3 0  9991
2 35420 099.1222 047.9226 0024887 193.9561 295.3391 13.74844886835117
1 35428U 04045D   18212.55187936  .00105080  28079-6  31366-3 0  9991
2 35428  39.0226 291.2650 3044527 201.0670 319.5515  9.50197390273433
1 35536U 01049QL  18242.00569327  .00000264  00000-0  16925-3 0  9993
2 35536  98.6882 154.4706 0429640  73.4487 291.3394 13.72431061757075
1 35537U 01049QM  11092.15069827 +.00000197 +00000-0 +75856-4 0  9990
2 35537 098.2031 067.3711 0090567 049.9616 311.3399 14.37725730338478
1 35538U 06006CF  18241.42147260 -.00000735  00000-0 -36131-2 0  9991
2 35538  51.7125 320.8399 5103306  82.3142 359.3182  5.04837364191663
1 35540U 06006CH  18241.02019929 +.00000797 +00000-0 +20153-2 0  9993
2 35540 052.0983 182.1660 5052920 126.1905 346.3654 05.23424471125288
1 35541U 06006CJ  18241.97871357 -.00000112  00000-0 -15832-3 0  9991
2 35541  51.5358 122.3509 5143130 265.7385  36.6388  5.19201093194022
1 35542U 06006CK  18232.45490476 +.00000003 +00000-0 +23683-3 0  9994
2 35542 051.5622 288.3054 4983750 139.2486 349.9903 05.13066702192460
1 35543U 06006CL  18202.13500189 -.00000599 +00000-0 -32952-2 0  9990
2 35543 052.7651 076.0862 5109612 225.9347 341.7939 04.99933791182521
1 35544U 06006CM  18184.00800139 +.00005331 +00000-0 +66429-3 0  9998
2 35544 051.4423 055.0212 2973770 243.3519 083.3577 09.27772788256798
1 35545U 06006CN  18241.87656154  .00031178  00000-0  31456-2 0  9993
2 35545  51.5748 203.6976 1977139  79.6412 302.0061 11.28143946295606
1 35546U 06006CP  18241.36692276 -.00010771  00000-0 -19357-1 0  9996
2 35546  51.2404 316.6344 2651680  76.2433 311.6876  9.27536955227465
1 35547U 07003F   18241.42503287 +.00000288 +00000-0 +28910-3 0  9992
2 35547 024.5034 034.9561 4780073 320.5602 012.8737 05.79446619134084
1 35548U 07003G   18234.53450729  .00000060  00000-0  15612-2 0  9991
2 35548  26.2775 314.4919 7531621 283.6673  54.1306  1.82341300 65379
1 35555U 07003P   18241.90164797  .01056237  00000-0  18100-1 0  9997
2 35555  26.0892  71.9098 3857662 102.8004 302.1316  7.80390959109374
